[{"OBJECT_NAME":"STARLINK-5924","OBJECT_ID":"2023-037BB","EPOCH":"2026-03-09T21:16:56.793216","MEAN_MOTION":14.98330037,"ECCENTRICITY":0.00029882,"INCLINATION":69.9983,"RA_OF_ASC_NODE":263.9199,"ARG_OF_PERICENTER":270.0052,"MEAN_ANOMALY":90.0765,"EPHEMERIS_TYPE":0,"CLASSIFICATION_TYPE":"U","NORAD_CAT_ID":55963,"ELEMENT_SET_NO":999,"REV_AT_EPOCH":16450,"BSTAR":4.580269e-6,"MEAN_MOTION_DOT":-3.8e-7,"MEAN_MOTION_DDOT":0},{"OBJECT_NAME":"SITRO-AIS 21","OBJECT_ID":"2024-199E","EPOCH":"2026-03-09T22:38:47.668992","MEAN_MOTION":14.94747634,"ECCENTRICITY":0.00136926,"INCLINATION":97.333,"RA_OF_ASC_NODE":273.2344,"ARG_OF_PERICENTER":42.1108,"MEAN_ANOMALY":318.1163,"EPHEMERIS_TYPE":0,"CLASSIFICATION_TYPE":"U","NORAD_CAT_ID":61739,"ELEMENT_SET_NO":999,"REV_AT_EPOCH":11692,"BSTAR":0.00018121744,"MEAN_MOTION_DOT":1.92e-5,"MEAN_MOTION_DDOT":0}]
